OBJECT_NAME,OBJECT_ID,EPOCH,MEAN_MOTION,ECCENTRICITY,INCLINATION,RA_OF_ASC_NODE,ARG_OF_PERICENTER,MEAN_ANOMALY,EPHEMERIS_TYPE,CLASSIFICATION_TYPE,NORAD_CAT_ID,ELEMENT_SET_NO,REV_AT_EPOCH,BSTAR,MEAN_MOTION_DOT,MEAN_MOTION_DDOT
SKYSAT-C4,2016-058B,2026-07-12T14:11:16.089216,15.49378795,.0003375,96.9166,214.3113,121.6663,238.4919,0,U,41771,999,54940,.21392E-3,.11647E-3,0
SKYSAT-C5,2016-058C,2026-07-12T16:00:08.750880,15.33697335,.0002262,97.0459,233.1668,167.5326,192.5974,0,U,41772,999,54765,.14077E-3,.4512E-4,0
SKYSAT-C2,2016-058D,2026-07-12T13:29:11.076000,15.42640053,.0001849,97.0160,214.7089,5.3443,354.7825,0,U,41773,999,54896,.18376E-3,.792E-4,0
SKYSAT-C3,2016-058E,2026-07-12T15:47:28.423104,15.53626037,.0002414,96.8992,223.5415,136.6705,223.4740,0,U,41774,999,55006,.24693E-3,.15667E-3,0
ALSAT-1B,2016-059C,2026-07-12T20:41:35.445984,14.72293869,.0010155,97.7755,201.5178,136.2572,223.9442,0,U,41785,999,52435,.66834E-4,.375E-5,0
PATHFINDER 1,2016-059E,2026-07-12T13:35:24.938304,14.67691277,.0029701,97.8175,191.6981,123.7133,236.6910,0,U,41787,999,52343,.58639E-4,.289E-5,0
SCATSAT 1,2016-059H,2026-07-12T17:01:39.059040,14.79583421,.0055053,98.1179,257.7377,164.4981,195.7932,0,U,41790,999,10536,.95986E-4,.68E-5,0
GOKTURK 1A,2016-073A,2026-07-12T19:53:17.454336,14.62791983,.0001421,98.1225,88.0980,79.2969,280.8392,0,U,41875,999,51257,.30679E-4,.11E-5,0
RESOURCESAT-2A,2016-074A,2026-07-12T19:56:17.395296,14.21608151,.0002532,98.7525,267.1243,33.8431,326.2907,0,U,41877,999,49794,.55314E-4,.77E-6,0
CARTOSAT-2D,2017-008A,2026-07-12T20:17:17.408832,15.19270547,.0005799,97.4099,252.6699,145.4996,214.6616,0,U,41948,999,52147,.80065E-4,.1621E-4,0
SENTINEL-2B,2017-013A,2026-07-12T19:14:44.951424,14.30814679,.0001212,98.5690,268.2138,89.7337,270.3985,0,U,42063,999,48830,.3705E-4,.53E-6,0
CARTOSAT-2E,2017-036C,2026-07-12T20:42:48.579264,15.19239013,.0003011,97.4269,253.2401,195.6086,164.5056,0,U,42767,999,50204,.224E-4,.405E-5,0
FORMOSAT-5,2017-049A,2026-07-12T18:37:37.225056,14.50907418,.0011496,98.2247,268.5166,11.2162,348.9287,0,U,42920,999,47038,.20303E-4,.36E-6,0
SENTINEL-5P,2017-064A,2026-07-12T18:55:05.771136,14.19523062,.0001105,98.7929,135.7382,92.5141,267.6162,0,U,42969,999,45319,.23052E-4,.4E-7,0
SKYSAT-C11,2017-068A,2026-07-12T10:02:00.916224,15.59216138,.00009656,97.4366,343.3758,162.5128,197.6162,0,U,42987,999,48717,.22940119E-3,.17889E-3,0
SKYSAT-C10,2017-068B,2026-07-12T20:22:06.409920,15.35088238,.0001409,97.4529,330.9574,109.4915,250.6480,0,U,42988,999,48629,.22282E-3,.7505E-4,0
SKYSAT-C9,2017-068C,2026-07-12T14:44:29.059008,15.42174934,.0008857,97.4448,331.9015,53.0107,307.1949,0,U,42989,999,48667,.20809E-3,.8845E-4,0
SKYSAT-C8,2017-068D,2026-07-12T20:17:47.018112,15.37463335,.0001224,97.4548,330.8531,101.8680,258.2702,0,U,42990,999,48625,.19785E-3,.7184E-4,0
SKYSAT-C7,2017-068E,2026-07-12T04:32:29.236128,15.37404124,.0005961,97.4554,331.1783,31.4631,328.6968,0,U,42991,999,48621,.16759645E-3,.6063E-4,0
SKYSAT-C6,2017-068F,2026-07-12T20:16:42.758976,15.34145523,.0005134,97.4595,331.7075,94.9453,265.2376,0,U,42992,999,48625,.18576E-3,.6059E-4,0
CARTOSAT-2F,2018-004A,2026-07-12T21:29:43.093824,15.19257456,.0002542,97.4784,253.2769,140.9577,219.1842,0,U,43111,999,47123,.65102E-4,.1304E-4,0
GAOFEN-1 02,2018-031A,2026-07-12T20:21:21.515616,14.76467881,.00016,98.0522,256.3015,301.6056,58.4997,0,U,43259,999,44648,-.23346E-4,-.214E-5,0
GAOFEN-1 03,2018-031B,2026-07-12T19:49:47.851392,14.76460668,.0002598,98.0505,256.1355,22.2830,337.8492,0,U,43260,999,44647,.58301E-4,.354E-5,0
GAOFEN-1 04,2018-031D,2026-07-12T20:52:25.142016,14.76468778,.0001384,98.0523,256.3727,57.6803,302.4541,0,U,43262,999,44647,.6202E-4,.38E-5,0
SENTINEL-3B,2018-039A,2026-07-12T18:53:25.467648,14.26735933,.0001083,98.6237,260.9506,119.4324,240.6964,0,U,43437,999,42777,.19507E-4,.4E-7,0
GAOFEN-5 01,2018-043A,2026-07-12T21:18:43.579296,14.60622425,.0002228,98.4588,166.0166,36.7715,323.3637,0,U,43461,999,43544,.38748E-4,.139E-5,0
GAOFEN-6,2018-048A,2026-07-12T21:24:41.900832,14.76382054,.0012156,98.0966,256.5884,88.1698,272.0904,0,U,43484,999,43718,.54651E-4,.327E-5,0
GAOFEN-11 01,2018-063A,2026-07-12T20:07:42.250080,15.56016333,.0002868,97.1289,260.6551,210.3046,149.8043,0,U,43585,999,44433,.10694E-3,.7342E-4,0
ICESAT-2,2018-070A,2026-07-12T19:44:56.922720,15.28326348,.0005612,92.0093,297.9063,70.8264,289.3592,0,U,43613,999,43637,.23275E-3,.6422E-4,0
HYSIS,2018-096A,2026-07-12T20:36:24.865632,14.78665141,.0001846,97.9835,260.4038,84.3024,275.8398,0,U,43719,999,41121,-.51765E-6,-.56E-6,0
KAZSTSAT,2018-099AB,2026-07-12T15:33:38.349792,14.99952000,.0007501,97.4318,224.4284,351.1054,9.0035,0,U,43783,999,41512,.61823E-4,.712E-5,0
