SKYSAT-C4               
1 41771U 16058B   26193.59115844  .00011647  00000+0  21392-3 0  9996
2 41771  96.9166 214.3113 0003375 121.6663 238.4919 15.49378795549403
SKYSAT-C5               
1 41772U 16058C   26193.66676795  .00004512  00000+0  14077-3 0  9997
2 41772  97.0459 233.1668 0002262 167.5326 192.5974 15.33697335547657
SKYSAT-C2               
1 41773U 16058D   26193.56193375  .00007920  00000+0  18376-3 0  9997
2 41773  97.0160 214.7089 0001849   5.3443 354.7825 15.42640053548965
SKYSAT-C3               
1 41774U 16058E   26193.65796786  .00015667  00000+0  24693-3 0  9999
2 41774  96.8992 223.5415 0002414 136.6705 223.4740 15.53626037550065
ALSAT-1B                
1 41785U 16059C   26193.86221581  .00000375  00000+0  66834-4 0  9995
2 41785  97.7755 201.5178 0010155 136.2572 223.9442 14.72293869524355
PATHFINDER 1            
1 41787U 16059E   26193.56626086  .00000289  00000+0  58639-4 0  9991
2 41787  97.8175 191.6981 0029701 123.7133 236.6910 14.67691277523434
SCATSAT 1               
1 41790U 16059H   26193.70947985  .00000680  00000+0  95986-4 0  9996
2 41790  98.1179 257.7377 0055053 164.4981 195.7932 14.79583421105362
GOKTURK 1A              
1 41875U 16073A   26193.82867424  .00000110  00000+0  30679-4 0  9994
2 41875  98.1225  88.0980 0001421  79.2969 280.8392 14.62791983512579
RESOURCESAT-2A          
1 41877U 16074A   26193.83075689  .00000077  00000+0  55314-4 0  9997
2 41877  98.7525 267.1243 0002532  33.8431 326.2907 14.21608151497945
CARTOSAT-2D             
1 41948U 17008A   26193.84534038  .00001621  00000+0  80065-4 0  9990
2 41948  97.4099 252.6699 0005799 145.4996 214.6616 15.19270547521479
SENTINEL-2B             
1 42063U 17013A   26193.80190916  .00000053  00000+0  37050-4 0  9998
2 42063  98.5690 268.2138 0001212  89.7337 270.3985 14.30814679488307
CARTOSAT-2E             
1 42767U 17036C   26193.86306226  .00000405  00000+0  22400-4 0  9997
2 42767  97.4269 253.2401 0003011 195.6086 164.5056 15.19239013502044
FORMOSAT-5              
1 42920U 17049A   26193.77612529  .00000036  00000+0  20303-4 0  9998
2 42920  98.2247 268.5166 0011496  11.2162 348.9287 14.50907418470381
SENTINEL-5P             
1 42969U 17064A   26193.78826124  .00000004  00000+0  23052-4 0  9996
2 42969  98.7929 135.7382 0001105  92.5141 267.6162 14.19523062453199
SKYSAT-C11              
1 42987U 17068A   26193.41806616  .00017889  00000+0  22940-3 0  9997
2 42987  97.4366 343.3758 0000965 162.5128 197.6162 15.59216138487175
SKYSAT-C10              
1 42988U 17068B   26193.84868530  .00007505  00000+0  22282-3 0  9991
2 42988  97.4529 330.9574 0001409 109.4915 250.6480 15.35088238486290
SKYSAT-C9               
1 42989U 17068C   26193.61422522  .00008845  00000+0  20809-3 0  9995
2 42989  97.4448 331.9015 0008857  53.0107 307.1949 15.42174934486670
SKYSAT-C8               
1 42990U 17068D   26193.84568308  .00007184  00000+0  19785-3 0  9991
2 42990  97.4548 330.8531 0001224 101.8680 258.2702 15.37463335486250
SKYSAT-C7               
1 42991U 17068E   26193.18922727  .00006063  00000+0  16760-3 0  9993
2 42991  97.4554 331.1783 0005961  31.4631 328.6968 15.37404124486210
SKYSAT-C6               
1 42992U 17068F   26193.84493934  .00006059  00000+0  18576-3 0  9992
2 42992  97.4595 331.7075 0005134  94.9453 265.2376 15.34145523486259
CARTOSAT-2F             
1 43111U 18004A   26193.89563766  .00001304  00000+0  65102-4 0  9999
2 43111  97.4784 253.2769 0002542 140.9577 219.1842 15.19257456471230
GAOFEN-1 02             
1 43259U 18031A   26193.84816569 -.00000214  00000+0 -23346-4 0  9994
2 43259  98.0522 256.3015 0001600 301.6056  58.4997 14.76467881446481
GAOFEN-1 03             
1 43260U 18031B   26193.82624828  .00000354  00000+0  58301-4 0  9991
2 43260  98.0505 256.1355 0002598  22.2830 337.8492 14.76460668446471
GAOFEN-1 04             
1 43262U 18031D   26193.86973544  .00000380  00000+0  62020-4 0  9991
2 43262  98.0523 256.3727 0001384  57.6803 302.4541 14.76468778446475
SENTINEL-3B             
1 43437U 18039A   26193.78710032  .00000004  00000+0  19507-4 0  9990
2 43437  98.6237 260.9506 0001083 119.4324 240.6964 14.26735933427773
GAOFEN-5 01             
1 43461U 18043A   26193.88800439  .00000139  00000+0  38748-4 0  9991
2 43461  98.4588 166.0166 0002228  36.7715 323.3637 14.60622425435440
GAOFEN-6                
1 43484U 18048A   26193.89215163  .00000327  00000+0  54651-4 0  9996
2 43484  98.0966 256.5884 0012156  88.1698 272.0904 14.76382054437183
GAOFEN-11 01            
1 43585U 18063A   26193.83868345  .00007342  00000+0  10694-3 0  9997
2 43585  97.1289 260.6551 0002868 210.3046 149.8043 15.56016333444338
ICESAT-2                
1 43613U 18070A   26193.82288105  .00006422  00000+0  23275-3 0  9993
2 43613  92.0093 297.9063 0005612  70.8264 289.3592 15.28326348436372
HYSIS                   
1 43719U 18096A   26193.85862113 -.00000056  00000+0 -51765-6 0  9995
2 43719  97.9835 260.4038 0001846  84.3024 275.8398 14.78665141411214
KAZSTSAT                
1 43783U 18099AB  26193.64836053  .00000712  00000+0  61823-4 0  9991
2 43783  97.4318 224.4284 0007501 351.1054   9.0035 14.99952000415126
